NORAD_CAT_ID,OBJECT_NAME,OBJECT_TYPE,EPOCH,MEAN_MOTION,ECCENTRICITY,INCLINATION,RA_OF_ASC_NODE,ARG_OF_PERICENTER,MEAN_ANOMALY,BSTAR,MEAN_MOTION_DOT,MEAN_MOTION_DDOT,TLE_LINE0,TLE_LINE1,TLE_LINE2,SEMIMAJOR_AXIS,PERIOD,APOGEE,PERIGEE,DECAYED
55398.0,STARLINK-5275,PAYLOAD,2023-06-02 06:03:50,15.69904314,0.000287,69.998,107.8988,254.8381,105.2498,2.8009e-05,3.154e-05,0.0,0 STARLINK-5275,1 55398U 23014H   23153.25266907  .00003154  00000-0  28009-4 0  9997,2 55398  69.9980 107.8988 0002870 254.8381 105.2498 15.69904314 20229,6737.308,91.725,361.106,357.239,0.0
55398.0,STARLINK-5275,PAYLOAD,2023-06-02 21:21:21,15.69910474,0.0003171,69.998,106.1075,260.2685,99.8153,3.4373e-05,3.92e-05,0.0,0 STARLINK-5275,1 55398U 23014H   23153.88983678  .00003920  00000-0  34373-4 0  9999,2 55398  69.9980 106.1075 0003171 260.2685  99.8153 15.69910474 20322,6737.29,91.725,361.292,357.019,0.0
55398.0,STARLINK-5275,PAYLOAD,2023-06-03 06:31:52,15.69915559,0.0003272,69.9977,105.0321,262.0256,98.0568,2.3834e-05,2.653e-05,0.0,0 STARLINK-5275,1 55398U 23014H   23154.27213948  .00002653  00000-0  23834-4 0  9991,2 55398  69.9977 105.0321 0003272 262.0256  98.0568 15.69915559 19447,6737.276,91.725,361.345,356.936,0.0
55398.0,STARLINK-5275,PAYLOAD,2023-06-03 21:49:24,15.69917538,0.0003234,69.9996,103.2452,254.7891,105.2947,1.363e-06,-4.9e-07,0.0,0 STARLINK-5275,1 55398U 23014H   23154.90931139 -.00000049  00000-0  13630-5 0  9992,2 55398  69.9996 103.2452 0003234 254.7891 105.2947 15.69917538 20481,6737.27,91.725,361.314,356.956,0.0
55398.0,STARLINK-5275,PAYLOAD,2023-06-04 06:59:54,15.69923767,0.0003124,69.9987,102.1672,249.4476,110.6385,5.2829e-06,4.23e-06,0.0,0 STARLINK-5275,1 55398U 23014H   23155.29160768  .00000423  00000-0  52829-5 0  9995,2 55398  69.9987 102.1672 0003124 249.4476 110.6385 15.69923767 19600,6737.252,91.724,361.222,357.012,0.0
55398.0,STARLINK-5275,PAYLOAD,2023-06-04 22:17:25,15.69923928,0.0003349,69.9984,100.3748,255.1026,104.9799,1.1208e-05,1.135e-05,0.0,0 STARLINK-5275,1 55398U 23014H   23155.92877140  .00001135  00000-0  11208-4 0  9990,2 55398  69.9984 100.3748 0003349 255.1026 104.9799 15.69923928 20645,6737.252,91.724,361.373,356.86,0.0
55398.0,STARLINK-5275,PAYLOAD,2023-06-05 04:24:25,15.6995602,0.0002997,69.9982,99.6581,257.0391,103.047,-3.7211e-05,-4.69e-05,0.0,0 STARLINK-5275,1 55398U 23014H   23156.18362988 -.00004690  00000-0 -37211-4 0  9991,2 55398  69.9982  99.6581 0002997 257.0391 103.0470 15.69956020 19746,6737.16,91.722,361.044,357.006,0.0
55398.0,STARLINK-5275,PAYLOAD,2023-06-05 05:56:13,15.69905608,0.0002794,69.9992,99.482,254.6526,105.4361,-1.6307e-05,-2.171e-05,0.0,0 STARLINK-5275,1 55398U 23014H   23156.24737319 -.00002171  00000-0 -16307-4 0  9997,2 55398  69.9992  99.4820 0002794 254.6526 105.4361 15.69905608 19751,6737.304,91.725,361.051,357.287,0.0
55398.0,STARLINK-5275,PAYLOAD,2023-06-05 13:34:57,15.69914969,0.000331,69.9972,98.5806,266.8932,93.1884,-2.9647e-06,-5.69e-06,0.0,0 STARLINK-5275,1 55398U 23014H   23156.56594835 -.00000569  00000-0 -29647-5 0  9997,2 55398  69.9972  98.5806 0003310 266.8932  93.1884 15.69914969 20748,6737.277,91.725,361.372,356.912,0.0
55398.0,STARLINK-5275,PAYLOAD,2023-06-05 22:45:28,15.69923241,0.000353,69.9988,97.5079,259.0218,101.0581,1.7746e-06,1e-08,0.0,0 STARLINK-5275,1 55398U 23014H   23156.94824368  .00000001  00000-0  17746-5 0  9992,2 55398  69.9988  97.5079 0003530 259.0218 101.0581 15.69923241 19868,6737.254,91.724,361.497,356.74,0.0
55398.0,STARLINK-5275,PAYLOAD,2023-06-06 04:52:28,15.69928908,0.0003428,69.9975,96.7904,262.3818,97.6989,7.9895e-06,7.48e-06,0.0,0 STARLINK-5275,1 55398U 23014H   23157.20310498  .00000748  00000-0  79895-5 0  9997,2 55398  69.9975  96.7904 0003428 262.3818  97.6989 15.69928908 19903,6737.237,91.724,361.412,356.793,0.0
55398.0,STARLINK-5275,PAYLOAD,2023-06-06 23:13:30,15.69923851,0.0003418,69.9973,94.6394,264.359,95.7216,-6.0998e-06,-9.46e-06,0.0,0 STARLINK-5275,1 55398U 23014H   23157.96771228 -.00000946  00000-0 -60998-5 0  9998,2 55398  69.9973  94.6394 0003418 264.3590  95.7216 15.69923851 20028,6737.252,91.724,361.42,356.814,0.0
55398.0,STARLINK-5275,PAYLOAD,2023-06-07 20:38:02,15.69923132,0.0003166,69.997,92.1296,263.6869,96.3966,2.1794e-06,4.9e-07,0.0,0 STARLINK-5275,1 55398U 23014H   23158.85974599  .00000049  00000-0  21794-5 0  9996,2 55398  69.9970  92.1296 0003166 263.6869  96.3966 15.69923132 21101,6737.254,91.724,361.252,356.986,0.0
55398.0,STARLINK-5275,PAYLOAD,2023-06-08 04:16:47,15.69930049,0.0003284,69.9968,91.2336,265.7281,94.3539,3.8104e-06,2.45e-06,0.0,0 STARLINK-5275,1 55398U 23014H   23159.17832399  .00000245  00000-0  38104-5 0  9994,2 55398  69.9968  91.2336 0003284 265.7281  94.3539 15.69930049 20215,6737.234,91.724,361.312,356.887,0.0
55398.0,STARLINK-5275,PAYLOAD,2023-06-08 22:37:48,15.69927559,0.0003184,69.9975,89.0867,251.3242,108.7608,2.092e-07,-1.88e-06,0.0,0 STARLINK-5275,1 55398U 23014H   23159.94292658 -.00000188  00000-0  20920-6 0  9992,2 55398  69.9975  89.0867 0003184 251.3242 108.7608 15.69927559 20336,6737.241,91.724,361.251,356.961,0.0
55398.0,STARLINK-5275,PAYLOAD,2023-06-09 04:44:49,15.69923122,0.0003147,69.997,88.3674,263.3978,96.6859,-7.9313e-06,-1.166e-05,0.0,0 STARLINK-5275,1 55398U 23014H   23160.19779873 -.00001166  00000-0 -79313-5 0  9997,2 55398  69.9970  88.3674 0003147 263.3978  96.6859 15.69923122 20376,6737.254,91.724,361.239,356.999,0.0
55398.0,STARLINK-5275,PAYLOAD,2023-06-09 12:23:35,15.69915947,0.0003253,69.9971,87.4724,269.8703,90.212,2.0963e-06,3.9e-07,0.0,0 STARLINK-5275,1 55398U 23014H   23160.51638514  .00000039  00000-0  20963-5 0  9992,2 55398  69.9971  87.4724 0003253 269.8703  90.2120 15.69915947 21365,6737.274,91.725,361.331,356.948,0.0
55398.0,STARLINK-5275,PAYLOAD,2023-06-10 02:09:21,15.69930303,0.0003555,69.9976,85.8612,272.9736,87.1053,4.0444e-06,2.74e-06,0.0,0 STARLINK-5275,1 55398U 23014H   23161.08982650  .00000274  00000-0  40444-5 0  9995,2 55398  69.9976  85.8612 0003555 272.9736  87.1053 15.69930303 20513,6737.233,91.724,361.493,356.703,0.0
55398.0,STARLINK-5275,PAYLOAD,2023-06-10 05:12:51,15.69929289,0.000315,69.9976,85.5035,264.4202,95.6634,4.7653e-06,3.6e-06,0.0,0 STARLINK-5275,1 55398U 23014H   23161.21726036  .00000360  00000-0  47653-5 0  9999,2 55398  69.9976  85.5035 0003150 264.4202  95.6634 15.69929289 21470,6737.236,91.724,361.224,356.979,0.0
55398.0,STARLINK-5275,PAYLOAD,2023-06-10 17:26:52,15.69921913,0.0003611,69.9974,84.0722,264.9948,95.0836,-2.5295e-06,-5.17e-06,0.0,0 STARLINK-5275,1 55398U 23014H   23161.72700014 -.00000517  00000-0 -25295-5 0  9997,2 55398  69.9974  84.0722 0003611 264.9948  95.0836 15.69921913 20618,6737.257,91.724,361.555,356.69,0.0
55398.0,STARLINK-5275,PAYLOAD,2023-06-11 11:47:54,15.69922167,0.0003207,69.9975,81.9227,273.065,87.0179,1.2236e-05,1.259e-05,0.0,0 STARLINK-5275,1 55398U 23014H   23162.49159856  .00001259  00000-0  12236-4 0  9996,2 55398  69.9975  81.9227 0003207 273.0650  87.0179 15.69922167 21677,6737.257,91.724,361.282,356.961,0.0
55398.0,STARLINK-5275,PAYLOAD,2023-06-11 17:54:54,15.69922415,0.0003164,69.9989,81.2063,265.0341,95.0493,2.8612e-06,1.31e-06,0.0,0 STARLINK-5275,1 55398U 23014H   23162.74646805  .00000131  00000-0  28612-5 0  9993,2 55398  69.9989  81.2063 0003164 265.0341  95.0493 15.69922415 21712,6737.256,91.724,361.253,356.989,0.0
55398.0,STARLINK-5275,PAYLOAD,2023-06-11 20:58:25,15.69923762,0.0003083,69.999,80.848,264.9058,95.1786,2.0258e-06,3.1e-07,0.0,0 STARLINK-5275,1 55398U 23014H   23162.87390051  .00000031  00000-0  20258-5 0  9993,2 55398  69.9990  80.8480 0003083 264.9058  95.1786 15.69923762 21739,6737.252,91.724,361.194,357.04,0.0
55398.0,STARLINK-5275,PAYLOAD,2023-06-12 04:37:12,15.69904465,0.0002811,69.9992,79.952,272.5066,87.5807,-2.2182e-05,-2.876e-05,0.0,0 STARLINK-5275,1 55398U 23014H   23163.19250037 -.00002876  00000-0 -22182-4 0  9996,2 55398  69.9992  79.9520 0002811 272.5066  87.5807 15.69904465 20846,6737.307,91.725,361.066,357.278,0.0
55398.0,STARLINK-5275,PAYLOAD,2023-06-13 00:29:57,15.69917955,0.0003764,69.9959,77.6201,262.9157,97.1611,5.3109e-06,4.25e-06,0.0,0 STARLINK-5275,1 55398U 23014H   23164.02080200  .00000425  00000-0  53109-5 0  9992,2 55398  69.9959  77.6201 0003764 262.9157  97.1611 15.69917955 20974,6737.269,91.725,361.67,356.598,0.0
55398.0,STARLINK-5275,PAYLOAD,2023-06-13 03:33:28,15.6990329,0.0002704,69.9994,77.2656,262.6909,97.3979,-9.9085e-06,-1.402e-05,0.0,0 STARLINK-5275,1 55398U 23014H   23164.14824990 -.00001402  00000-0 -99085-5 0  9998,2 55398  69.9994  77.2656 0002704 262.6909  97.3979 15.69903290 20996,6737.311,91.725,360.997,357.354,0.0
55398.0,STARLINK-5275,PAYLOAD,2023-06-14 00:57:58,15.69926593,0.000323,69.9975,74.755,270.099,89.9836,4.9709e-06,3.85e-06,0.0,0 STARLINK-5275,1 55398U 23014H   23165.04026520  .00000385  00000-0  49709-5 0  9996,2 55398  69.9975  74.7550 0003230 270.0990  89.9836 15.69926593 21135,6737.244,91.724,361.285,356.933,0.0
55398.0,STARLINK-5275,PAYLOAD,2023-06-14 04:01:29,15.69924516,0.0003128,69.9986,74.3972,265.1198,94.964,2.4557e-06,8.3e-07,0.0,0 STARLINK-5275,1 55398U 23014H   23165.16770073  .00000083  00000-0  24557-5 0  9997,2 55398  69.9986  74.3972 0003128 265.1198  94.9640 15.69924516 22090,6737.25,91.724,361.222,357.008,0.0
55398.0,STARLINK-5275,PAYLOAD,2023-06-15 02:57:46,15.6992469,0.0003409,69.9975,71.7118,272.0182,88.0623,-1.2292e-05,-1.691e-05,0.0,0 STARLINK-5275,1 55398U 23014H   23166.12345611 -.00001691  00000-0 -12292-4 0  9990,2 55398  69.9975  71.7118 0003409 272.0182  88.0623 15.69924690 21304,6737.249,91.724,361.411,356.818,0.0
55398.0,STARLINK-5275,PAYLOAD,2023-06-16 00:22:17,15.69947475,0.0003379,69.9981,69.2062,253.4,106.6825,-3.6966e-05,-4.66e-05,0.0,0 STARLINK-5275,1 55398U 23014H   23167.01548378 -.00004660  00000-0 -36966-4 0  9997,2 55398  69.9981  69.2062 0003379 253.4000 106.6825 15.69947475 21441,6737.184,91.723,361.326,356.773,0.0
